              M50 Cartesian                         J2K Cartesian  
    -----------------------------------       --------------------------------
     X    =       -8193738.48                 X    =        -2431595.63
     Y    =      -11908753.85  feet           Y    =        -3657348.13  meter
     Z    =      -16939764.51                 Z    =        -5175212.37
     XDOT =      16996.909112                 XDOT =        5234.970748
     YDOT =     -17965.722891  feet/sec       YDOT =       -5417.715089  meter/sec
     ZDOT =       4414.134677                 ZDOT =        1370.726778
 
              TDR Cartesian                         TDR Cartesian  
    -----------------------------------       --------------------------------
     X    =      -13544697.57                 X    =        -4128423.82
     Y    =       -4874108.56  feet           Y    =        -1485628.29  meter
     Z    =      -16991045.40                 Z    =        -5178870.64
     XDOT =       2795.085995                 XDOT =         851.942211
     YDOT =     -23522.402200  feet/sec       YDOT =       -7169.628191  meter/sec
     ZDOT =       4525.054474                 ZDOT =        1379.236604
  
  
    The mean element set is posted at the UTC for which position is
    just north of the next ascending node relative to the above
    vector time
 
 
    TWO LINE MEAN ELEMENT SET
  
    ISS
    1 25544U 98067A   16119.51372111  .00016717  00000-0  10270-3 0  9017
    2 25544  51.6399 305.8192 0001662  66.5266 293.6062 15.54361559 37258
  
  
    Satellite: ISS
    Catalog Number: 25544
    Epoch time:      16119.51372111   =   yrday.fracday
    Element set:     901
    Inclination:       51.6399  deg
    RA of node:       305.8192  deg
    Eccentricity:     .0001662     
    Arg of perigee:    66.5266  deg
    Mean anomaly:     293.6062  deg
    Mean motion:   15.54361559  rev/day
    Decay rate:    1.67170E-04  rev/day^2
    Epoch rev:            3725
    Checksum:              309
 
 
    Coasting Arc #3 (Orbit 3740)
    ---------------------------------------
 
    Vector Time (GMT): 2016/120/12:00:00.000
    Vector Time (MET): N/A
    Weight (LBS)     : 945238.6
 
              M50 Cartesian                         M50 Keplerian  
    -----------------------------------       --------------------------------
     X    =        1252508.46                 A    =         6780210.86  meter
     Y    =        4946862.05  meter          E    =           .0010705
     Z    =        4457933.57                 I    =           51.31517
     XDOT =      -5480.433847                 Wp   =           68.53248
     YDOT =       4297.349748  meter/sec      RA   =          300.17893  deg
     ZDOT =      -3218.777178                 TA   =           54.02783
                                              MA   =           53.92860
                                              Ha   =            221.166  n.mi
                                              Hp   =            213.758
 
              M50 Cartesian                         J2K Cartesian  
    -----------------------------------       --------------------------------
     X    =        4109279.72                 X    =         1175443.43
     Y    =       16229862.35  feet           Y    =         4960437.57  meter
     Z    =       14625766.30                 Z    =         4463830.76
     XDOT =     -17980.426008                 XDOT =       -5512.445010
     YDOT =      14098.916495  feet/sec       YDOT =        4235.884875  meter/sec
     ZDOT =     -10560.292579                 ZDOT =       -3245.477757
 
              TDR Cartesian                         TDR Cartesian  
    -----------------------------------       --------------------------------
     X    =       12979550.71                 X    =         3956167.06
     Y    =       10540593.69  feet           Y    =         3212772.96  meter
     Z    =       14650419.78                 Z    =         4465447.95
     XDOT =      -5042.259738                 XDOT =       -1536.880768
     YDOT =      21095.040049  feet/sec       YDOT =        6429.768207  meter/sec
     ZDOT =     -10677.064522                 ZDOT =       -3254.369266
  
  
    The mean element set is posted at the UTC for which position is
    just north of the next ascending node relative to the above
    vector time
 
 
    TWO LINE MEAN ELEMENT SET
  
    ISS
    1 25544U 98067A   16120.54239919  .00016717  00000-0  10270-3 0  9021
    2 25544  51.6398 300.6895 0001610  68.8423 291.2901 15.54351778 37419
  
  
    Satellite: ISS
    Catalog Number: 25544
    Epoch time:      16120.54239919   =   yrday.fracday
    Element set:     902
    Inclination:       51.6398  deg
    RA of node:       300.6895  deg
    Eccentricity:     .0001610     
    Arg of perigee:    68.8423  deg
    Mean anomaly:     291.2901  deg
    Mean motion:   15.54351778  rev/day
    Decay rate:    1.67170E-04  rev/day^2
    Epoch rev:            3741
    Checksum:              314
 
 
    Coasting Arc #4 (Orbit 3755)
    ---------------------------------------
 
    Vector Time (GMT): 2016/121/12:00:00.000
    Vector Time (MET): N/A
    Weight (LBS)     : 945238.6
 
              M50 Cartesian                         M50 Keplerian  
    -----------------------------------       --------------------------------
     X    =        -100035.47                 A    =         6784078.79  meter
     Y    =       -5945344.73  meter          E    =           .0006349
     Z    =       -3270408.50                 I    =           51.31234
     XDOT =       5422.230524                 Wp   =           81.62461
     YDOT =      -2675.760689  meter/sec      RA   =          295.16796  deg
     ZDOT =       4707.234060                 TA   =          240.24901
                                              MA   =          240.31219
                                              Ha   =            221.225  n.mi
                                              Hp   =            213.646
 
              M50 Cartesian                         J2K Cartesian  
    -----------------------------------       --------------------------------
     X    =        -328200.36                 X    =          -17659.36
     Y    =      -19505724.19  feet           Y    =        -5946002.87  meter
     Z    =      -10729686.68                 Z    =        -3270694.25
     XDOT =      17789.470224                 XDOT =        5428.882676
     YDOT =      -8778.742419  feet/sec       YDOT =       -2615.088414  meter/sec
     ZDOT =      15443.681299                 ZDOT =        4733.590297
 
              TDR Cartesian                         TDR Cartesian  
    -----------------------------------       --------------------------------
     X    =      -12216817.70                 X    =        -3723686.03
     Y    =      -15209473.96  feet           Y    =        -4635847.66  meter
     Z    =      -10729791.95                 Z    =        -3270440.59
     XDOT =       7423.136114                 XDOT =        2262.571887
     YDOT =     -16918.364924  feet/sec       YDOT =       -5156.717629  meter/sec
     ZDOT =      15558.640337                 ZDOT =        4742.273575
  
  
    The mean element set is posted at the UTC for which position is
    just north of the next ascending node relative to the above
    vector time
 
 
    TWO LINE MEAN ELEMENT SET
  
    ISS
    1 25544U 98067A   16121.50678107  .00016717  00000-0  10270-3 0  9035
    2 25544  51.6391 295.8803 0001720  78.0914 282.0432 15.54374110 37564
  
  
    Satellite: ISS
    Catalog Number: 25544
    Epoch time:      16121.50678107   =   yrday.fracday
    Element set:     903
    Inclination:       51.6391  deg
    RA of node:       295.8803  deg
    Eccentricity:     .0001720     
    Arg of perigee:    78.0914  deg
    Mean anomaly:     282.0432  deg
    Mean motion:   15.54374110  rev/day
    Decay rate:    1.67170E-04  rev/day^2
    Epoch rev:            3756
    Checksum:              293
 
 
    Coasting Arc #5 (Orbit 3771)
    ---------------------------------------
 
    Vector Time (GMT): 2016/122/12:00:00.000
    Vector Time (MET): N/A
    Weight (LBS)     : 945238.6
 
              M50 Cartesian                         M50 Keplerian  
    -----------------------------------       --------------------------------
     X    =        -961701.86                 A    =         6787341.59  meter
     Y    =        6500750.30  meter          E    =           .0015107
     Z    =        1671328.22                 I    =           51.31100
     XDOT =      -5107.076754                 Wp   =          111.85891
     YDOT =        713.731196  meter/sec      RA   =          290.16716  deg
     ZDOT =      -5678.941158                 TA   =           49.73312
                                              MA   =           49.60113
                                              Ha   =            221.100  n.mi
                                              Hp   =            213.676
 
              M50 Cartesian                         J2K Cartesian  
    -----------------------------------       --------------------------------
     X    =       -3155189.83                 X    =        -1042442.05
     Y    =       21327920.93  feet           Y    =         6489544.52  meter
     Z    =        5483360.30                 Z    =         1666460.16
     XDOT =     -16755.501162                 XDOT =       -5087.092235
     YDOT =       2341.637781  feet/sec       YDOT =         656.732027  meter/sec
     ZDOT =     -18631.696712                 ZDOT =       -5703.701737
 
